OBJECT_NAME,OBJECT_ID,EPOCH,MEAN_MOTION,ECCENTRICITY,INCLINATION,RA_OF_ASC_NODE,ARG_OF_PERICENTER,MEAN_ANOMALY,EPHEMERIS_TYPE,CLASSIFICATION_TYPE,NORAD_CAT_ID,ELEMENT_SET_NO,REV_AT_EPOCH,BSTAR,MEAN_MOTION_DOT,MEAN_MOTION_DDOT
NUSAT-49 (KLARA DAN VON NEUMANN),2024-149AJ,2026-06-12T18:04:15.433824,15.29875912,.0001352,97.3787,245.0712,3.6182,356.5068,0,U,60500,999,10145,.33212E-3,.9535E-4,0
FLOCK 4BE-11,2024-149AK,2026-06-12T18:32:22.106112,15.42844030,.0002395,97.3707,247.8779,283.6425,76.4556,0,U,60501,999,10167,.43219E-3,.18884E-3,0
YAM-7,2024-149AN,2026-06-12T17:54:00.081792,15.31760977,.0002235,97.3790,244.0133,332.8590,27.2534,0,U,60504,999,10137,.26045E-3,.791E-4,0
FLOCK 4BE-24,2024-149AP,2026-06-12T18:13:22.809792,15.42914699,.0002558,97.3721,248.1189,296.8307,63.2679,0,U,60505,999,10168,.46677E-3,.20454E-3,0
LUR-1,2024-149AQ,2026-06-12T04:59:31.104960,15.30043097,.0003187,97.3741,242.0721,343.2950,16.8185,0,U,60506,999,10121,.24432692E-3,.703E-4,0
TANAGER-1,2024-149AR,2026-06-12T19:40:36.831072,15.44927682,.000329,97.2654,258.0706,322.5861,37.5159,0,U,60507,999,10236,.6427E-4,.2934E-4,0
EAGLEEYE,2024-149AS,2026-06-12T18:34:22.819008,15.70114273,.0003758,97.3729,256.8701,248.5702,111.5159,0,U,60508,999,10224,.78441E-3,.95385E-3,0
FLOCK 4BE-29,2024-149AT,2026-06-12T03:00:09.936864,15.43979729,.00014879,97.3815,248.9219,330.2278,29.8885,0,U,60509,999,10163,.35776752E-3,.1622E-3,0
TRANSPORTER-11 OBJECT AU,2024-149AU,2026-06-12T18:28:40.009728,15.40105773,.0002374,97.3737,247.4550,315.5895,44.5160,0,U,60510,999,10163,.41683E-3,.16621E-3,0
FLOCK 4BE-2,2024-149AV,2026-06-12T19:19:24.981600,15.52249858,.0002973,97.3840,250.9756,273.2988,86.7924,0,U,60511,999,10182,.84712E-3,.51584E-3,0
FLOCK 4BE-13,2024-149AW,2026-06-12T17:49:32.043072,15.41775665,.0002777,97.3726,248.1080,283.5242,76.5696,0,U,60512,999,10168,.36817E-3,.15504E-3,0
FLOCK 4BE-27,2024-149AX,2026-06-12T18:14:18.168000,15.34374051,.000282,97.3831,245.6088,338.7826,21.3300,0,U,60513,999,10146,.30467E-3,.10065E-3,0
FLOCK 4BE-9,2024-149AY,2026-06-12T17:43:43.980672,15.40667154,.0001517,97.3798,247.9672,328.7703,31.3453,0,U,60514,999,10163,.40784E-3,.16564E-3,0
FLOCK 4BE-6,2024-149BA,2026-06-12T18:20:06.867168,15.39459550,.0002161,97.3796,247.3595,322.2059,37.9034,0,U,60516,999,10159,.37819E-3,.14752E-3,0
FLOCK 4BE-14,2024-149BB,2026-06-12T04:00:52.292160,15.40838837,.00031033,97.3701,246.8901,318.9340,41.1672,0,U,60517,999,10155,.42368591E-3,.17312E-3,0
FLOCK 4BE-1,2024-149BC,2026-06-12T18:32:05.004096,15.42460561,.0002858,97.3785,248.7615,313.2966,46.8043,0,U,60518,999,10169,.43106E-3,.18594E-3,0
FLOCK 4BE-28,2024-149BD,2026-06-12T19:02:02.848128,15.44766501,.0002883,97.3750,249.4934,307.7004,52.3983,0,U,60519,999,10176,.43515E-3,.20293E-3,0
IPERDRONE.0,2024-149BE,2026-06-12T18:29:46.594752,15.66033961,.0003181,97.3781,256.7667,237.2133,122.8821,0,U,60520,999,10222,.75471E-3,.77582E-3,0
TRANSPORTER-11 OBJECT BF,2024-149BF,2026-06-12T18:28:11.242848,15.82790858,.0005739,97.3767,259.3727,240.2602,119.8096,0,U,60521,999,10238,.10997E-2,.237124E-2,0
CONNECTA IOT-2,2024-149BG,2026-06-12T18:44:22.149888,15.23939957,.0005951,97.3844,241.9930,355.0793,5.0384,0,U,60522,999,10122,.19864E-3,.4734E-4,0
PTD-R (TYVAK-0127),2024-149BH,2026-06-12T18:35:25.503072,16.22434503,.001201,97.3798,264.4309,269.3329,90.6585,0,U,60523,999,10273,.99997E-3,.230348E-1,.24368E-5
CONNECTA IOT-4,2024-149BJ,2026-06-12T19:04:28.487424,15.41990175,.0003962,97.3807,248.1126,305.4116,54.6760,0,U,60524,999,10165,.46951E-3,.1995E-3,0
ORESAT0.5,2024-149BK,2026-06-12T18:41:29.901120,15.44922776,.000405,97.3726,249.7115,294.1225,65.9600,0,U,60525,999,10179,.48015E-3,.22529E-3,0
DEIMOS,2024-149BL,2026-06-12T19:24:23.305248,15.44074248,.000407,97.3786,249.8846,303.3651,56.7207,0,U,60526,999,10177,.4283E-3,.19509E-3,0
CUAVA-2,2024-149BM,2026-06-12T18:48:30.841920,15.36021495,.0005361,97.3728,245.2951,315.1034,44.9775,0,U,60527,999,10149,.39238E-3,.13697E-3,0
ERNST,2024-149BN,2026-06-12T17:58:26.675904,15.39097236,.0004636,97.3815,247.4351,319.6354,40.4547,0,U,60528,999,10159,.39949E-3,.15409E-3,0
TORO,2024-149BQ,2026-06-12T18:13:52.361184,14.96410444,.0001686,97.6790,238.5101,86.2242,273.9172,0,U,60530,999,9929,.21859E-3,.242E-4,0
HYPSO-2,2024-149BR,2026-06-12T04:38:39.837696,14.98768896,.00010202,97.6820,239.5279,35.9722,324.1570,0,U,60531,999,9930,.18114271E-3,.2123E-4,0
LEMU NGE,2024-149BS,2026-06-12T03:57:49.514688,14.94937113,.00024936,97.6847,238.2260,73.4750,286.6744,0,U,60532,999,9920,.25381245E-3,.2714E-4,0
LEMUR-2-STELLA,2024-149BT,2026-06-12T18:42:25.380288,15.11718004,.000159,97.6740,246.2148,97.0219,263.1192,0,U,60533,999,9983,.81161E-3,.13777E-3,0
SATELIOT_2,2024-149BU,2026-06-12T17:55:05.974752,14.96344529,.0001947,97.6827,238.7834,100.5163,259.6278,0,U,60534,999,9930,.19299E-3,.2126E-4,0
NIGHTJAR,2024-149BV,2026-06-12T04:27:28.055232,14.98997566,.00018415,97.6858,239.9626,80.1651,279.9780,0,U,60535,999,14212,.19382283E-3,.229E-4,0
LEMUR-2-MARHISYAM,2024-149BW,2026-06-12T18:11:46.880736,15.11175904,.0003353,97.6889,246.6383,124.3485,235.8062,0,U,60536,999,9981,.7324E-3,.12239E-3,0
SATELIOT_4,2024-149BX,2026-06-12T18:12:01.057248,14.96655162,.0003462,97.6741,238.3257,71.7501,288.4097,0,U,60537,999,9931,.21284E-3,.237E-4,0
PICO-02A021,2024-149BY,2026-06-12T00:58:55.348032,15.03196565,.00051864,97.6742,241.9163,42.0280,318.1342,0,U,60538,999,9896,.39047336E-3,.5222E-4,0
ICEYE-X43,2024-149BZ,2026-06-12T18:11:49.102944,14.99585782,.0008072,97.6778,240.7839,97.6508,262.5632,0,U,60539,999,9945,.33565E-3,.4073E-4,0
HAWK-10A,2024-149CA,2026-06-12T18:09:32.101056,14.96500990,.000505,97.6895,239.7440,90.2914,269.8886,0,U,60540,999,9932,.20037E-3,.2219E-4,0
UMBRA-09,2024-149CB,2026-06-12T18:47:08.494080,15.17917615,.0000554,97.6978,250.9128,277.7406,82.3764,0,U,60541,999,10005,.10408E-2,.21086E-3,0
QPS-SAR-8 (AMATERU-IV),2024-149CC,2026-06-12T19:16:15.616992,15.04097323,.0005042,97.6675,242.9900,116.4989,243.6755,0,U,60542,999,9961,.39541E-3,.5418E-4,0
ARCTIC WEATHER SATELLITE,2024-149CD,2026-06-12T18:54:41.834016,14.89800181,.0003585,97.6802,234.3793,112.4408,247.7190,0,U,60543,999,9864,.87297E-4,.784E-5,0
CAPELLA-15 (ACADIA-5),2024-149CE,2026-06-12T18:19:06.883104,14.92401102,.0005094,97.6775,236.7769,91.0778,269.1025,0,U,60544,999,9919,.44634E-3,.4517E-4,0
HAWK-10B,2024-149CF,2026-06-12T18:09:18.798048,14.96501405,.0006972,97.6814,239.1035,105.1871,255.0122,0,U,60545,999,9932,.18822E-3,.2082E-4,0
ICEYE-X39,2024-149CG,2026-06-12T19:22:31.131264,14.99870617,.0004811,97.6765,240.8906,130.0329,230.1317,0,U,60546,999,9946,.27114E-3,.3302E-4,0
UMBRA-10,2024-149CH,2026-06-12T18:46:29.963136,15.17917175,.0000779,97.6981,250.9399,71.0119,289.1198,0,U,60547,999,10006,.9191E-3,.18606E-3,0
ICEYE-X33,2024-149CJ,2026-06-12T18:27:24.305184,15.00923355,.0001585,97.7269,242.9336,102.7722,257.3679,0,U,60548,999,9954,.39959E-3,.5031E-4,0
ICEYE-X40,2024-149CK,2026-06-12T18:14:38.625792,14.97922244,.0006578,97.6811,240.3266,94.6907,265.5066,0,U,60549,999,9941,.20641E-3,.2375E-4,0
SATELIOT_1,2024-149CL,2026-06-12T19:38:39.929280,14.98047824,.0008271,97.6744,239.7885,93.1410,267.0759,0,U,60550,999,9941,.21702E-3,.2509E-4,0
BRO-14,2024-149CM,2026-06-12T18:45:06.261408,14.96169510,.0008145,97.6877,239.6383,108.0491,252.1619,0,U,60551,999,9933,.73357E-4,.769E-5,0
SATELIOT_3,2024-149CN,2026-06-12T19:03:42.467328,14.98038977,.0006011,97.6821,240.5532,96.2453,263.9454,0,U,60552,999,9942,.15766E-3,.1806E-4,0
BRO-15,2024-149CP,2026-06-12T18:19:45.871104,14.96142649,.0009592,97.6806,239.2282,97.2771,262.9541,0,U,60553,999,9934,.13319E-3,.1443E-4,0
UM5-RIBAT,2024-149CQ,2026-06-12T19:20:28.388832,15.01052564,.0003712,97.6643,241.6652,68.5831,291.5789,0,U,60554,999,9953,.24358E-3,.3054E-4,0
UM5-EOSAT,2024-149CR,2026-06-12T18:33:57.503808,15.01496291,.0008709,97.6698,242.5612,127.8199,232.3815,0,U,60555,999,9955,.3392E-3,.433E-4,0
LASARSAT,2024-247Q,2026-06-12T01:35:26.614464,15.46059259,.00084039,44.9753,290.9829,302.5447,57.4631,0,U,62391,999,8252,.64660115E-3,.32134E-3,0
CROCUBE,2024-247T,2026-06-12T06:20:01.926816,15.47921042,.00082607,44.9724,287.2870,307.3288,52.6849,0,U,62394,999,8258,.76592407E-3,.40736E-3,0
TEVEL2-4,2025-052D,2026-06-12T05:25:55.785504,15.34441293,.00047313,97.3917,59.6110,112.7549,247.4195,0,U,63213,999,6935,.59032813E-3,.19646E-3,0
TEVEL2-5,2025-052E,2026-06-12T04:20:44.162880,15.34269187,.00046298,97.3921,59.5143,114.2395,245.9332,0,U,63214,999,6934,.60653612E-3,.20078E-3,0
TEVEL2-6,2025-052F,2026-06-12T04:38:19.599360,15.34232330,.00045055,97.3921,59.5115,113.2672,246.9046,0,U,63215,999,6934,.61027656E-3,.20179E-3,0
TEVEL2-1,2025-052H,2026-06-11T23:01:50.060352,15.33693147,.00045093,97.3891,58.9077,123.4340,236.7334,0,U,63217,999,6929,.49545202E-3,.16082E-3,0
TEVEL2-3,2025-052J,2026-06-12T05:10:10.853760,15.33760310,.00044986,97.3892,59.1848,123.1530,237.0145,0,U,63218,999,6933,.58756477E-3,.19135E-3,0
TEVEL2-2,2025-052K,2026-06-11T23:02:19.638528,15.33701780,.00044495,97.3890,58.9106,123.8478,236.3189,0,U,63219,999,6929,.50082788E-3,.16262E-3,0
TEVEL2-9,2025-052AD,2026-06-12T04:36:24.619968,15.31748226,.00072884,97.3947,58.5267,144.2630,215.9100,0,U,63237,999,6926,.58279521E-3,.17823E-3,0
TEVEL2-7,2025-052AE,2026-06-11T15:27:08.309088,15.31438086,.0007384,97.3956,57.8996,146.6025,213.5683,0,U,63238,999,6917,.50452758E-3,.15266E-3,0
TEVEL2-8,2025-052AF,2026-06-12T04:11:39.798816,15.31439720,.00074755,97.3951,58.4063,146.0802,214.0919,0,U,63239,999,6925,.55488137E-3,.16802E-3,0
FORESAIL-1 PRIME,2025-276DS,2026-06-12T04:28:50.095488,15.18657242,.00038644,97.4203,236.5489,113.4472,246.7169,0,U,66778,999,2964,.22324714E-3,.4559E-4,0
